#dP2021  8 10  0  0  0.00000000      96 __u+U ITR00 FIT  IAC
## 2170 172800.00000000   900.00000000 59436 0.0000000000000
+  127   C01C02C03C04C05C06C07C08C09C10C11C12C13C14C16C19C20
+        C21C22C23C24C25C26C27C28C29C30C32C33C34C35C36C37C38
+        C39C40C41C42C43C44C45C46C59C60E01E02E03E04E05E07E08
+        E09E11E12E13E14E15E18E19E21E24E25E26E27E30E31E33E36
+        G01G02G03G04G05G06G07G08G09G10G12G13G14G15G16G17G18
+        G19G20G21G22G23G24G25G26G27G28G29G30G31G32J01J02J03
+        J07R01R02R03R04R05R06R07R08R09R10R11R12R13R14R15R16
+        R17R18R19R20R21R22R23R24  0  0  0  0  0  0  0  0  0
++        13 12 13 13 13  9 10  9  9  9  9  8  9 12  9  7  7
++         7  7  7  7  7  7  7  7  7  7  7  7  7  7  8  8  8
++         8  8  7  7  7  7  8  8 16  0  4  5  4  4  4  5  5
++         4  4  4  4  5  5  5  4  5  4  4  4  5  5  4  4  5
++         3  4  4  4  4  4  4  4  4  4  4  4  4  4  4  4  4
++         4  4  4  4  4  4  4  4  4  4  4  4  4  3  8  8  8
++        15  7  6  6  6  6 13  6  6  6 13  8  6  7  6  6  7
++         6  6  7  7  6  7 13  6  0  0  0  0  0  0  0  0  0
%c M  cc GPS ccc cccc cccc cccc cccc ccccc ccccc ccccc ccccc
%c cc cc ccc ccc cccc cccc cccc cccc ccccc ccccc ccccc ccccc
%f  0.0000000  0.000000000  0.00000000000  0.000000000000000
%f  0.0000000  0.000000000  0.00000000000  0.000000000000000
%i    0    0    0    0      0      0      0      0         0
%i    0    0    0    0      0      0      0      0         0
/* INFORMATION & ANALYSIS CENTER (IAC)            RAPID DATA
/* S/V CLOCKS ARE ALIGNED TO GNSS TIME                      
/* G:C1WC2W R:C1PC2P E:C1XC5X C:C2IC6I J:C1CC2S             
/* PCV:IGS14_2163 OL/AL:FES2004  NONE     YN ORB:CoN CLK:CoN
*  2021 08 10  9 45  0.00000000
PC01 -34349.722240  24426.081099   -141.025937   -188.416116
PC02   4330.473836  41975.913551    887.077465    434.824704
PC03 -14773.983168  39509.397934    732.951558   -359.834451
PC04 -39649.758949  14333.906092   -355.602505   -270.217382
PC05  21821.012797  36070.029745   1236.129467     -8.293134
PC06  -2678.732216  37999.805356  18255.618296    738.575420
PC07 -17832.947950  22671.531428 -30586.221466     26.366879
PC08 -23353.298147  33698.065404   9038.707462   -918.511455
PC09   2727.020588  41188.693990   9996.456371    -15.913917
PC10  -2819.439184  26333.317001 -32554.742067    -10.030479
PC11  15978.840192   5008.839746  22370.032515    508.440665
PC12  12346.663596  22366.191513  11221.977336    786.338455
PC13 -11654.719797  34311.891518  21433.342595    368.309714
PC14  27054.517726   4985.026749  -4471.056323 999999.999999
PC16  -4604.660338  36264.377831  21337.581272   -868.820817
PC19 -24453.141146   2175.770169  13311.268453    941.492719
PC20 -25814.729858 -10152.002427  -3199.499797   -823.118203
PC21  11680.136692  17088.099980  18717.705621   -939.910387
PC22  -8918.097769  13635.890687  22657.545909   -950.165732
PC23  15749.382983 -21772.201923   7540.111894   -962.516520
PC24  16820.103520   5559.761728 -21563.594246   -964.212227
PC25  22961.586141 -12760.665278  -9445.533947   -872.557749
PC26   2083.997562  18568.742113 -20719.543902    866.461096
PC27  -7408.626663 -26790.865072  -2427.153330    578.535552
PC28   5294.331119 -23249.909557  14505.328583    -40.265136
PC29 -14636.415123   6594.504751 -22836.041436    431.350635
PC30 -16156.987100 -14579.226805 -17467.226325    476.954361
PC32 -11814.148380 -17005.729880 -18702.544298   -930.021749
PC33  24463.992658  -2260.467343 -13213.745632   -954.882637
PC34  16295.921798  13859.689995  17915.778293   -608.355454
PC35  -4788.384428  23203.142772 -14777.247743   -146.479276
PC36 -23273.892962  11881.289337   9829.025989   -741.774448
PC37   -708.900535 -19123.975397  20340.945978   -861.709760
PC38 -21186.223733  34872.164774  10307.218899    167.593341
PC39  -6486.061291  33015.131604  25496.230038     32.672095
PC40  -6688.345328  21468.387103 -35639.815549    188.900995
PC41   9222.407513 -13540.934178 -22545.276403   -964.256614
PC42  25473.381136  10637.349984   4055.763536   -930.750092
PC43  14959.992578  -5911.487748  22792.344253   -861.218234
PC44   8182.165992  26605.782161   2172.063797    333.629615
PC45 -15636.144883  21782.349738  -7687.669085    516.720268
PC46 -17460.340405  -4480.578000  21308.676652    138.837912
PC59 -32240.902469  27146.299714    312.539166     -0.804032
PC60      0.000000      0.000000      0.000000 999999.999999
PE01  18538.632833   9717.134650 -20920.552938  -1168.571739
PE02 -18652.624358  -9646.522710  20863.494851    238.914764
PE03 -21488.463209 -20341.047646   1107.334207   -462.114196
PE04  23104.710542   5411.234821 -17685.341124   -831.898403
PE05  -7210.577509 -23564.478452 -16399.628129   -258.385791
PE07 -11112.927984  13017.456531  24156.214279   -572.039793
PE08 -22960.936838  -5054.061821  17996.236586   5956.440393
PE09  10761.614142 -13137.795237 -24240.758616   5571.042220
PE11  13883.105746 -23426.669929  11579.331251   5598.299444
PE12  17093.338294  -3872.510042  23844.430572   5067.640731
PE13 -13973.077146  23158.251309 -12027.524851    420.101110
PE14 -23388.099616 -16262.499859 -13848.637312  -1530.470110
PE15 -17015.343842   3973.172590 -23892.802831    798.754774
PE18  15591.147171  18556.218400   4808.627843  -1678.354866
PE19  20347.787088  21466.664184   1143.754803    348.608316
PE21  -1555.928176  17221.141995 -24018.142525   -681.159544
PE24  22423.743293 -14695.708786  12559.424980  -1054.961426
PE25   1793.401622 -17264.352291  23989.412886   -542.780345
PE26  -2165.478812  28486.631983   7723.913163   1478.402778
PE27 -21648.542573  15127.955235 -13353.222677    -94.731126
PE30 -28776.552340   3268.258444   6095.678412   2713.676215
PE31  28861.102705  -4178.739373  -5050.379061   -484.240385
PE33  10030.466460  17501.699991  21659.674744   -466.471351
PE36   2711.933467 -28659.859856  -6890.095860   -246.397228
PG01  13973.739506 -21783.701121   4831.531201    601.961000
PG02 -16048.853470   2387.743875 -20392.646765   -625.392029
PG03  18052.330464 -12096.653378 -15298.841056   -249.145108
PG04   6829.200904 -15585.048615 -20372.396657   -203.729501
PG05 -25442.927354   6404.609334   4513.104646    -50.659830
PG06 -10693.690014 -11020.115447 -21604.788800     53.643450
PG07   4230.717239 -24385.254378   9297.570904    221.869740
PG08  14579.614452  -5274.541539  21585.116042    -32.098550
PG09  -3951.073353 -22268.196971 -13973.456178   -358.387248
PG10  13775.137537  12113.029524  19424.474406   -179.563970
PG12 -18848.466701  10816.895033 -15428.504564    -80.862168
PG13 -17255.023569  -3762.055012  19745.775002    169.374306
PG14 -13620.626219 -12758.843173  18912.808492     27.107287
PG15 -14253.848591   7373.783120  20821.157316   -129.406628
PG16  26800.801699    590.011855   -762.783970   -371.335798
PG17 -12728.883818 -23253.767393   1988.125676    487.159495
PG18  -3188.071506  23849.263423  11139.181587    334.064534
PG19 -16739.687131 -19257.746516  -7924.845305     37.727900
PG20 -25309.702468    345.655098  -7620.743559    519.728570
PG21  16294.630629 -16190.995488  13556.876822    136.390664
PG22  22844.031609 -10463.679837  -8112.069321   -541.868168
PG23    867.691478  15098.262326  21808.921113     72.765811
PG24 -14943.127873  19366.486495   9581.431579    203.875684
PG25  -7610.549192  15183.395690 -20616.127783    188.660609
PG26  23278.295842   5582.541510 -11852.564700    120.940610
PG27  18824.761243   5840.502873  17797.042459   -176.139069
PG28 -18602.336350 -10959.527835  15887.622034    522.460885
PG29    745.778926  21488.699211 -15598.007953   -393.955706
PG30  -5329.516889 -18886.068288  17860.669016   -460.613926
PG31  12578.376984   9053.746565 -21625.016038   -133.474118
PG32  16083.154733  21221.624004  -1124.125379      8.713889
PJ01 -26745.234848  21641.899493  29435.010769   -436.048976
PJ02 -36133.162751  18588.944083  -6771.995486     -1.438347
PJ03 -19526.598603  27673.861474 -20459.149306     -0.695267
PJ07 -25382.924115  33665.753291     36.543390      0.001778
PR01  20994.264516  13398.694036   5478.532829     83.615931
PR02  20762.663375   3362.213757 -14436.154668    489.164894
PR03   7690.037652  -8215.788706 -22853.788339     41.008191
PR04  -9618.755328 -14812.387793 -18376.123312     99.554059
PR05 -21430.815898 -13323.026745  -3638.128589     76.888409
PR06 -20380.346876  -1935.591875  15191.778791    203.026686
PR07  -6963.324349   8664.660223  22992.152594    -41.715876
PR08   9629.839955  14922.271497  18373.022050    -60.309267
PR09 -22152.052998   9445.403992   8546.008219      7.343950
PR10 -17976.705942  16239.690394  -7880.111576    -73.802295
PR11  -3251.960622  14028.595979 -21042.291903     46.125042
PR12  13756.674393   3220.771465 -21207.920817    252.456253
PR13  21954.676623  -9020.749867  -9343.403005    -58.963100
PR14  17384.226292 -16337.316328   9021.403051     67.483263
PR15   2765.358202 -13834.337718  21276.669905    102.170921
PR16 -14664.854997  -2279.119243  20696.153872    -19.328497
PR17   5849.789818 -20194.384732  14480.865894    448.557687
PR18  -1516.771649 -25384.691336  -1669.616860     86.430628
PR19  -7358.182662 -18142.334691 -16364.844437   -154.850389
PR20 -10289.503631   2475.413877 -23209.495597    -53.909416
PR21  -5394.767892  20958.759625 -13480.194987   -230.426535
PR22   1819.745776  25346.973437   2677.771326   -127.118638
PR23   9428.732039  11991.632216  20428.263933    -11.302596
PR24  10666.521709  -3449.857836  22924.401311     53.930130
EOF
